0 FENGYUN 1C DEB
1 31719U 99025CDS 13283.36993939  .00001864  00000-0  17414-2 0  2614
2 31719 097.5465 132.0672 0227908 251.2786 106.8461 13.71792581322860
0 FENGYUN 1C DEB
1 31719U 99025CDS 13283.80746955  .00001953  00000-0  18315-2 0  2628
2 31719 097.5459 132.4168 0225034 249.8203 107.8117 13.71795754322923
0 FENGYUN 1C DEB
1 31719U 99025CDS 13283.80748806  .00001839  00000-0  16961-2 0  2612
2 31719 097.5455 132.4160 0225701 249.7947 107.9263 13.71792396322928
0 FENGYUN 1C DEB
1 31719U 99025CDS 13287.38144538  .00002816  00000-0  26318-2 0  2636
2 31719 097.5472 135.2403 0223769 240.3031 117.6085 13.71817862323412
0 FENGYUN 1C DEB
1 31719U 99025CDS 13291.39296941  .00002677  00000-0  25017-2 0  2649
2 31719 097.5473 138.4027 0223785 229.2377 128.9008 13.71839024323961
0 FENGYUN 1C DEB
1 31719U 99025CDS 13293.79987083  .00002637  00000-0  24646-2 0  2653
2 31719 097.5455 140.2959 0223772 222.5621 135.7911 13.71851470324295
